start=new Date('2022-07-27T00:00:00.000Z').valueOf();
sats=[{"MEAN_MOTION_DOT":"-0.00000484","REF_FRAME":"TEME","INCLINATION":"53.2178","COUNTRY_CODE":"US","OBJECT_NAME":"STARLINK-3097","OBJECT_ID":"2021-104AS","ECCENTRICITY":"0.00016870","ARG_OF_PERICENTER":"64.5061","MEAN_MOTION":"15.08834332","LAUNCH_DATE":"2021-11-13","SITE":"AFETR","MEAN_MOTION_DDOT":"0.0000000000000","CENTER_NAME":"EARTH","OBJECT_TYPE":"PAYLOAD","EPHEMERIS_TYPE":"0","CLASSIFICATION_TYPE":"U","BSTAR":"-0.00001231600000","REV_AT_EPOCH":"3920","SEMIMAJOR_AXIS":"6917.898","TLE_LINE2":"2 49448  53.2178  33.5672 0001687  64.5061 295.6105 15.08834332 39206","RA_OF_ASC_NODE":"33.5672","RCS_SIZE":"LARGE","FILE":"3522469","TIME_SYSTEM":"UTC","GP_ID":"208930543","APOAPSIS":"540.930","MEAN_ELEMENT_THEORY":"SGP4","ELEMENT_SET_NO":"999","TLE_LINE1":"1 49448U 21104AS  22207.74501304 -.00000484  00000-0 -12316-4 0  9999","MEAN_ANOMALY":"295.6105","EPOCH":"2022-07-26T17:52:49.126656","DECAY_DATE":null,"PERIAPSIS":"538.596","PERIOD":"95.438","NORAD_CAT_ID":"49448"},{"COUNTRY_CODE":"US","OBJECT_NAME":"STARLINK-3137","INCLINATION":"53.2190","REF_FRAME":"TEME","MEAN_MOTION_DOT":"0.00001149","MEAN_MOTION":"15.08844424","ARG_OF_PERICENTER":"60.8079","ECCENTRICITY":"0.00017120","OBJECT_ID":"2021-104AT","CENTER_NAME":"EARTH","MEAN_MOTION_DDOT":"0.0000000000000","SITE":"AFETR","LAUNCH_DATE":"2021-11-13","CLASSIFICATION_TYPE":"U","EPHEMERIS_TYPE":"0","OBJECT_TYPE":"PAYLOAD","TLE_LINE2":"2 49449  53.2190  33.0446 0001712  60.8079 299.3085 15.08844424 39225","SEMIMAJOR_AXIS":"6917.867","REV_AT_EPOCH":"3922","BSTAR":"0.00009027300000","MEAN_ELEMENT_THEORY":"SGP4","APOAPSIS":"540.916","GP_ID":"208930293","TIME_SYSTEM":"UTC","FILE":"3522469","RA_OF_ASC_NODE":"33.0446","RCS_SIZE":"LARGE","MEAN_ANOMALY":"299.3085","TLE_LINE1":"1 49449U 21104AT  22207.86276179  .00001149  00000-0  90273-4 0  9997","ELEMENT_SET_NO":"999","NORAD_CAT_ID":"49449","PERIOD":"95.437","PERIAPSIS":"538.548","DECAY_DATE":null,"EPOCH":"2022-07-26T20:42:22.618656"},{"CENTER_NAME":"EARTH","LAUNCH_DATE":"2021-11-13","MEAN_MOTION_DDOT":"0.0000000000000","SITE":"AFETR","OBJECT_TYPE":"PAYLOAD","CLASSIFICATION_TYPE":"U","EPHEMERIS_TYPE":"0","INCLINATION":"53.2168","REF_FRAME":"TEME","OBJECT_NAME":"STARLINK-3127","COUNTRY_CODE":"US","MEAN_MOTION_DOT":"0.00000930","ECCENTRICITY":"0.00017350","OBJECT_ID":"2021-104AU","MEAN_MOTION":"15.08846576","ARG_OF_PERICENTER":"51.1825","MEAN_ANOMALY":"308.9322","ELEMENT_SET_NO":"999","TLE_LINE1":"1 49450U 21104AU  22207.80388281  .00000930  00000-0  76526-4 0  9993","PERIAPSIS":"538.525","NORAD_CAT_ID":"49450","PERIOD":"95.437","EPOCH":"2022-07-26T19:17:35.474784","DECAY_DATE":null,"REV_AT_EPOCH":"3947","BSTAR":"0.00007652600000","TLE_LINE2":"2 49450  53.2168  33.3018 0001735  51.1825 308.9322 15.08846576 39475","SEMIMAJOR_AXIS":"6917.860","MEAN_ELEMENT_THEORY":"SGP4","TIME_SYSTEM":"UTC","FILE":"3522469","RA_OF_ASC_NODE":"33.3018","RCS_SIZE":"LARGE","APOAPSIS":"540.926","GP_ID":"208931545"},{"CENTER_NAME":"EARTH","LAUNCH_DATE":"2021-11-13","SITE":"AFETR","MEAN_MOTION_DDOT":"0.0000000000000","OBJECT_TYPE":"PAYLOAD","EPHEMERIS_TYPE":"0","CLASSIFICATION_TYPE":"U","REF_FRAME":"TEME","INCLINATION":"53.2201","OBJECT_NAME":"STARLINK-3125","COUNTRY_CODE":"US","MEAN_MOTION_DOT":"0.00000405","OBJECT_ID":"2021-104AV","ECCENTRICITY":"0.00017960","ARG_OF_PERICENTER":"56.5107","MEAN_MOTION":"15.08834005","MEAN_ANOMALY":"303.6056","ELEMENT_SET_NO":"999","TLE_LINE1":"1 49451U 21104AV  22207.79285359  .00000405  00000-0  43527-4 0  9996","PERIAPSIS":"538.521","PERIOD":"95.438","NORAD_CAT_ID":"49451","EPOCH":"2022-07-26T19:01:42.550176","DECAY_DATE":null,"BSTAR":"0.00004352700000","REV_AT_EPOCH":"3921","SEMIMAJOR_AXIS":"6917.899","TLE_LINE2":"2 49451  53.2201  33.3523 0001796  56.5107 303.6056 15.08834005 39216","MEAN_ELEMENT_THEORY":"SGP4","RA_OF_ASC_NODE":"33.3523","RCS_SIZE":"LARGE","FILE":"3522469","TIME_SYSTEM":"UTC","GP_ID":"208931295","APOAPSIS":"541.006"},{"OBJECT_ID":"2021-104AW","ECCENTRICITY":"0.00017270","ARG_OF_PERICENTER":"72.0447","MEAN_MOTION":"15.08842557","MEAN_MOTION_DOT":"0.00000100","REF_FRAME":"TEME","INCLINATION":"53.2185","OBJECT_NAME":"STARLINK-3150","COUNTRY_CODE":"US","OBJECT_TYPE":"PAYLOAD","CLASSIFICATION_TYPE":"U","EPHEMERIS_TYPE":"0","LAUNCH_DATE":"2021-11-13","MEAN_MOTION_DDOT":"0.0000000000000","SITE":"AFETR","CENTER_NAME":"EARTH","RA_OF_ASC_NODE":"33.1073","RCS_SIZE":"LARGE","TIME_SYSTEM":"UTC","FILE":"3522469","GP_ID":"208930043","APOAPSIS":"540.932","MEAN_ELEMENT_THEORY":"SGP4","BSTAR":"0.00002436000000","REV_AT_EPOCH":"3922","TLE_LINE2":"2 49452  53.2185  33.1073 0001727  72.0447 288.0734 15.08842557 39221","SEMIMAJOR_AXIS":"6917.873","EPOCH":"2022-07-26T20:17:17.119392","DECAY_DATE":null,"PERIAPSIS":"538.543","PERIOD":"95.437","NORAD_CAT_ID":"49452","ELEMENT_SET_NO":"999","TLE_LINE1":"1 49452U 21104AW  22207.84533703  .00000100  00000-0  24360-4 0  9998","MEAN_ANOMALY":"288.0734"},{"TLE_LINE2":"2 49453  53.2199  33.3835 0001712  65.2049 294.9121 15.08847095 39218","SEMIMAJOR_AXIS":"6917.859","REV_AT_EPOCH":"3921","BSTAR":"0.00016540000000","APOAPSIS":"540.908","GP_ID":"208930794","TIME_SYSTEM":"UTC","FILE":"3522469","RA_OF_ASC_NODE":"33.3835","RCS_SIZE":"LARGE","MEAN_ELEMENT_THEORY":"SGP4","TLE_LINE1":"1 49453U 21104AX  22207.78548477  .00002346  00000-0  16540-3 0  9990","ELEMENT_SET_NO":"999","MEAN_ANOMALY":"294.9121","DECAY_DATE":null,"EPOCH":"2022-07-26T18:51:05.884128","NORAD_CAT_ID":"49453","PERIOD":"95.437","PERIAPSIS":"538.539","MEAN_MOTION_DOT":"0.00002346","OBJECT_NAME":"STARLINK-3129","COUNTRY_CODE":"US","INCLINATION":"53.2199","REF_FRAME":"TEME","MEAN_MOTION":"15.08847095","ARG_OF_PERICENTER":"65.2049","ECCENTRICITY":"0.00017120","OBJECT_ID":"2021-104AX","MEAN_MOTION_DDOT":"0.0000000000000","SITE":"AFETR","LAUNCH_DATE":"2021-11-13","CENTER_NAME":"EARTH","EPHEMERIS_TYPE":"0","CLASSIFICATION_TYPE":"U","OBJECT_TYPE":"PAYLOAD"},{"LAUNCH_DATE":"2021-11-13","MEAN_MOTION_DDOT":"0.0000000000000","SITE":"AFETR","CENTER_NAME":"EARTH","OBJECT_TYPE":"PAYLOAD","CLASSIFICATION_TYPE":"U","EPHEMERIS_TYPE":"0","MEAN_MOTION_DOT":"0.00000232","REF_FRAME":"TEME","INCLINATION":"53.2189","COUNTRY_CODE":"US","OBJECT_NAME":"STARLINK-3160","OBJECT_ID":"2021-104AY","ECCENTRICITY":"0.00021140","ARG_OF_PERICENTER":"81.8571","MEAN_MOTION":"15.08837595","ELEMENT_SET_NO":"999","TLE_LINE1":"1 49454U 21104AY  22207.78917256  .00000232  00000-0  32719-4 0  9995","MEAN_ANOMALY":"278.2661","EPOCH":"2022-07-26T18:56:24.509184","DECAY_DATE":null,"PERIAPSIS":"538.290","PERIOD":"95.438","NORAD_CAT_ID":"49454","BSTAR":"0.00003271900000","REV_AT_EPOCH":"3921","SEMIMAJOR_AXIS":"6917.888","TLE_LINE2":"2 49454  53.2189  33.3768 0002114  81.8571 278.2661 15.08837595 39212","RCS_SIZE":"LARGE","RA_OF_ASC_NODE":"33.3768","FILE":"3522469","TIME_SYSTEM":"UTC","GP_ID":"208931045","APOAPSIS":"541.215","MEAN_ELEMENT_THEORY":"SGP4"},{"MEAN_ANOMALY":"316.4841","ELEMENT_SET_NO":"999","TLE_LINE1":"1 49455U 21104AZ  22207.84068861  .00002240  00000-0  15876-3 0  9997","PERIAPSIS":"538.373","NORAD_CAT_ID":"49455","PERIOD":"95.437","EPOCH":"2022-07-26T20:10:35.495904","DECAY_DATE":null,"REV_AT_EPOCH":"3922","BSTAR":"0.00015876000000","SEMIMAJOR_AXIS":"6917.851","TLE_LINE2":"2 49455  53.2182  33.1258 0001942  43.6304 316.4841 15.08849619 39222","MEAN_ELEMENT_THEORY":"SGP4","TIME_SYSTEM":"UTC","FILE":"3522469","RCS_SIZE":"LARGE","RA_OF_ASC_NODE":"33.1258","APOAPSIS":"541.059","GP_ID":"208931796","CENTER_NAME":"EARTH","LAUNCH_DATE":"2021-11-13","MEAN_MOTION_DDOT":"0.0000000000000","SITE":"AFETR","OBJECT_TYPE":"PAYLOAD","EPHEMERIS_TYPE":"0","CLASSIFICATION_TYPE":"U","INCLINATION":"53.2182","REF_FRAME":"TEME","COUNTRY_CODE":"US","OBJECT_NAME":"STARLINK-3145","MEAN_MOTION_DOT":"0.00002240","ECCENTRICITY":"0.00019420","OBJECT_ID":"2021-104AZ","MEAN_MOTION":"15.08849619","ARG_OF_PERICENTER":"43.6304"},{"OBJECT_ID":"2021-104BA","ECCENTRICITY":"0.00016480","ARG_OF_PERICENTER":"60.7746","MEAN_MOTION":"15.08840006","MEAN_MOTION_DOT":"-0.00000876","REF_FRAME":"TEME","INCLINATION":"53.2171","COUNTRY_CODE":"US","OBJECT_NAME":"STARLINK-3124","OBJECT_TYPE":"PAYLOAD","CLASSIFICATION_TYPE":"U","EPHEMERIS_TYPE":"0","LAUNCH_DATE":"2021-11-13","SITE":"AFETR","MEAN_MOTION_DDOT":"0.0000000000000","CENTER_NAME":"EARTH","RCS_SIZE":"LARGE","RA_OF_ASC_NODE":"33.4096","TIME_SYSTEM":"UTC","FILE":"3522469","GP_ID":"208930544","APOAPSIS":"540.885","MEAN_ELEMENT_THEORY":"SGP4","BSTAR":"-0.00003694200000","REV_AT_EPOCH":"3921","TLE_LINE2":"2 49456  53.2171  33.4096 0001648  60.7746 299.3411 15.08840006 39219","SEMIMAJOR_AXIS":"6917.880","EPOCH":"2022-07-26T18:45:48.853152","DECAY_DATE":null,"PERIAPSIS":"538.605","PERIOD":"95.438","NORAD_CAT_ID":"49456","ELEMENT_SET_NO":"999","TLE_LINE1":"1 49456U 21104BA  22207.78181543 -.00000876  00000-0 -36942-4 0  9997","MEAN_ANOMALY":"299.3411"},{"REF_FRAME":"TEME","INCLINATION":"53.2198","OBJECT_NAME":"STARLINK-3132","COUNTRY_CODE":"US","MEAN_MOTION_DOT":"0.00000416","OBJECT_ID":"2021-104BB","ECCENTRICITY":"0.00016610","ARG_OF_PERICENTER":"68.5878","MEAN_MOTION":"15.08828530","CENTER_NAME":"EARTH","LAUNCH_DATE":"2021-11-13","SITE":"AFETR","MEAN_MOTION_DDOT":"0.0000000000000","OBJECT_TYPE":"PAYLOAD","EPHEMERIS_TYPE":"0","CLASSIFICATION_TYPE":"U","BSTAR":"0.00004426700000","REV_AT_EPOCH":"3923","SEMIMAJOR_AXIS":"6917.915","TLE_LINE2":"2 49457  53.2198  32.8540 0001661  68.5878 291.5292 15.08828530 39234","MEAN_ELEMENT_THEORY":"SGP4","RCS_SIZE":"LARGE","RA_OF_ASC_NODE":"32.8540","FILE":"3522469","TIME_SYSTEM":"UTC","GP_ID":"208930294","APOAPSIS":"540.930","MEAN_ANOMALY":"291.5292","ELEMENT_SET_NO":"999","TLE_LINE1":"1 49457U 21104BB  22207.90325376  .00000416  00000-0  44267-4 0  9993","PERIAPSIS":"538.631","PERIOD":"95.438","NORAD_CAT_ID":"49457","EPOCH":"2022-07-26T21:40:41.124864","DECAY_DATE":null}];
